{
  "type": "FeatureCollection",
  "features": [
    {
      "type": "Feature",
      "properties": {
        "norad_id": 31183,
        "name": "FENGYUN 1C DEB",
        "group": "fengyun-1c-debris",
        "lat": -42.45385258914037,
        "lon": -7.82224622688616,
        "alt_km": 744.0722486470067,
        "timestamp": "2025-12-25T03:55:56.638833+00:00",
        "meta_object_name": "FENGYUN 1C DEB",
        "meta_object_id": "1999-025BJM",
        "meta_epoch": "2025-12-24T17:23:09.278880",
        "meta_mean_motion": 14.50543047,
        "meta_eccentricity": 0.0047783,
        "meta_inclination": 99.0376,
        "meta_ra_of_asc_node": 343.3338,
        "meta_arg_of_pericenter": 72.2117,
        "meta_mean_anomaly": 111.8585,
        "meta_ephemeris_type": 0,
        "meta_classification_type": "U",
        "meta_norad_cat_id": 31183,
        "meta_element_set_no": 999,
        "meta_rev_at_epoch": 97656,
        "meta_bstar": 0.0013721,
        "meta_mean_motion_dot": 5.405e-05,
        "meta_mean_motion_ddot": 0,
        "tle_line1": "1 31183U 99025BJM 25358.72441295  .00005405  00000+0  13721-2 0  9997",
        "tle_line2": "2 31183  99.0376 343.3338 0047783  72.2117 111.8585 14.50543047976563"
      },
      "geometry": {
        "type": "Point",
        "coordinates": [
          -7.82224622688616,
          -42.45385258914037
        ]
      }
    },
    {
      "type": "Feature",
      "properties": {
        "norad_id": 31185,
        "name": "FENGYUN 1C DEB",
        "group": "fengyun-1c-debris",
        "lat": -52.567428256809016,
        "lon": 6.9859804115607895,
        "alt_km": 907.27993181278,
        "timestamp": "2025-12-25T03:55:56.638843+00:00",
        "meta_object_name": "FENGYUN 1C DEB",
        "meta_object_id": "1999-025BJP",
        "meta_epoch": "2025-12-03T06:44:56.905152",
        "meta_mean_motion": 14.03019915,
        "meta_eccentricity": 0.0041359,
        "meta_inclination": 98.8321,
        "meta_ra_of_asc_node": 334.0356,
        "meta_arg_of_pericenter": 132.5488,
        "meta_mean_anomaly": 227.9182,
        "meta_ephemeris_type": 0,
        "meta_classification_type": "U",
        "meta_norad_cat_id": 31185,
        "meta_element_set_no": 999,
        "meta_rev_at_epoch": 62204,
        "meta_bstar": 0.0004459,
        "meta_mean_motion_dot": 6.55e-06,
        "meta_mean_motion_ddot": 0,
        "tle_line1": "1 31185U 99025BJP 25337.28121418  .00000655  00000+0  44590-3 0  9990",
        "tle_line2": "2 31185  98.8321 334.0356 0041359 132.5488 227.9182 14.03019915622046"
      },
      "geometry": {
        "type": "Point",
        "coordinates": [
          6.9859804115607895,
          -52.567428256809016
        ]
      }
    },
    {
      "type": "Feature",
      "properties": {
        "norad_id": 31186,
        "name": "FENGYUN 1C DEB",
        "group": "fengyun-1c-debris",
        "lat": -31.443820182365467,
        "lon": 89.15792514862731,
        "alt_km": 874.3551728523926,
        "timestamp": "2025-12-25T03:55:56.638853+00:00",
        "meta_object_name": "FENGYUN 1C DEB",
        "meta_object_id": "1999-025BJQ",
        "meta_epoch": "2025-12-21T13:06:21.566016",
        "meta_mean_motion": 14.12920927,
        "meta_eccentricity": 0.0026334,
        "meta_inclination": 99.1789,
        "meta_ra_of_asc_node": 271.1249,
        "meta_arg_of_pericenter": 39.1426,
        "meta_mean_anomaly": 140.9615,
        "meta_ephemeris_type": 0,
        "meta_classification_type": "U",
        "meta_norad_cat_id": 31186,
        "meta_element_set_no": 999,
        "meta_rev_at_epoch": 96229,
        "meta_bstar": 0.00037163,
        "meta_mean_motion_dot": 6.48e-06,
        "meta_mean_motion_ddot": 0,
        "tle_line1": "1 31186U 99025BJQ 25355.54608294  .00000648  00000+0  37163-3 0  9992",
        "tle_line2": "2 31186  99.1789 271.1249 0026334  39.1426 140.9615 14.12920927962294"
      },
      "geometry": {
        "type": "Point",
        "coordinates": [
          89.15792514862731,
          -31.443820182365467
        ]
      }
    },
    {
      "type": "Feature",
      "properties": {
        "norad_id": 31187,
        "name": "FENGYUN 1C DEB",
        "group": "fengyun-1c-debris",
        "lat": 26.012558995720596,
        "lon": -140.52844989649867,
        "alt_km": 837.9205735587757,
        "timestamp": "2025-12-25T03:55:56.638863+00:00",
        "meta_object_name": "FENGYUN 1C DEB",
        "meta_object_id": "1999-025BJR",
        "meta_epoch": "2025-12-21T10:58:01.324992",
        "meta_mean_motion": 14.59636852,
        "meta_eccentricity": 0.02193421,
        "meta_inclination": 99.2407,
        "meta_ra_of_asc_node": 219.8994,
        "meta_arg_of_pericenter": 197.2347,
        "meta_mean_anomaly": 162.132,
        "meta_ephemeris_type": 0,
        "meta_classification_type": "U",
        "meta_norad_cat_id": 31187,
        "meta_element_set_no": 999,
        "meta_rev_at_epoch": 69227,
        "meta_bstar": 0.0019708223,
        "meta_mean_motion_dot": 0.0001311,
        "meta_mean_motion_ddot": 0,
        "tle_line1": "1 31187U 99025BJR 25355.45695978  .00013110  00000+0  19708-2 0  9990",
        "tle_line2": "2 31187  99.2407 219.8994 0219342 197.2347 162.1320 14.59636852692279"
      },
      "geometry": {
        "type": "Point",
        "coordinates": [
          -140.52844989649867,
          26.012558995720596
        ]
      }
    },
    {
      "type": "Feature",
      "properties": {
        "norad_id": 31188,
        "name": "FENGYUN 1C DEB",
        "group": "fengyun-1c-debris",
        "lat": 25.62182472924549,
        "lon": 62.6530706048843,
        "alt_km": 854.5916839066258,
        "timestamp": "2025-12-25T03:55:56.638874+00:00",
        "meta_object_name": "FENGYUN 1C DEB",
        "meta_object_id": "1999-025BJS",
        "meta_epoch": "2025-12-22T20:28:29.943840",
        "meta_mean_motion": 14.23887484,
        "meta_eccentricity": 0.0060762,
        "meta_inclination": 98.7475,
        "meta_ra_of_asc_node": 64.5893,
        "meta_arg_of_pericenter": 220.3553,
        "meta_mean_anomaly": 207.4513,
        "meta_ephemeris_type": 0,
        "meta_classification_type": "U",
        "meta_norad_cat_id": 31188,
        "meta_element_set_no": 999,
        "meta_rev_at_epoch": 96480,
        "meta_bstar": 0.0015869,
        "meta_mean_motion_dot": 3.662e-05,
        "meta_mean_motion_ddot": 0,
        "tle_line1": "1 31188U 99025BJS 25356.85312435  .00003662  00000+0  15869-2 0  9995",
        "tle_line2": "2 31188  98.7475  64.5893 0060762 220.3553 207.4513 14.23887484964807"
      },
      "geometry": {
        "type": "Point",
        "coordinates": [
          62.6530706048843,
          25.62182472924549
        ]
      }
    },
    {
      "type": "Feature",
      "properties": {
        "norad_id": 31190,
        "name": "FENGYUN 1C DEB",
        "group": "fengyun-1c-debris",
        "lat": 0.5355765331038802,
        "lon": 11.43191354583126,
        "alt_km": 919.2474872468783,
        "timestamp": "2025-12-25T03:55:56.638884+00:00",
        "meta_object_name": "FENGYUN 1C DEB",
        "meta_object_id": "1999-025BJU",
        "meta_epoch": "2025-12-15T23:14:05.075520",
        "meta_mean_motion": 14.03609027,
        "meta_eccentricity": 0.00676763,
        "meta_inclination": 98.819,
        "meta_ra_of_asc_node": 2.5971,
        "meta_arg_of_pericenter": 250.3103,
        "meta_mean_anomaly": 109.0754,
        "meta_ephemeris_type": 0,
        "meta_classification_type": "U",
        "meta_norad_cat_id": 31190,
        "meta_element_set_no": 999,
        "meta_rev_at_epoch": 95592,
        "meta_bstar": 0.00091857664,
        "meta_mean_motion_dot": 1.428e-05,
        "meta_mean_motion_ddot": 0,
        "tle_line1": "1 31190U 99025BJU 25349.96811430  .00001428  00000+0  91858-3 0  9992",
        "tle_line2": "2 31190  98.8190   2.5971 0067676 250.3103 109.0754 14.03609027955929"
      },
      "geometry": {
        "type": "Point",
        "coordinates": [
          11.43191354583126,
          0.5355765331038802
        ]
      }
    },
    {
      "type": "Feature",
      "properties": {
        "norad_id": 31191,
        "name": "FENGYUN 1C DEB",
        "group": "fengyun-1c-debris",
        "lat": 80.96040357839047,
        "lon": 156.74097103783757,
        "alt_km": 720.1474352343703,
        "timestamp": "2025-12-25T03:55:56.638894+00:00",
        "meta_object_name": "FENGYUN 1C DEB",
        "meta_object_id": "1999-025BJV",
        "meta_epoch": "2025-12-24T15:50:13.363296",
        "meta_mean_motion": 14.40815739,
        "meta_eccentricity": 0.0092853,
        "meta_inclination": 98.7828,
        "meta_ra_of_asc_node": 259.8709,
        "meta_arg_of_pericenter": 158.9099,
        "meta_mean_anomaly": 201.5957,
        "meta_ephemeris_type": 0,
        "meta_classification_type": "U",
        "meta_norad_cat_id": 31191,
        "meta_element_set_no": 999,
        "meta_rev_at_epoch": 98184,
        "meta_bstar": 0.0002947,
        "meta_mean_motion_dot": 9.44e-06,
        "meta_mean_motion_ddot": 0,
        "tle_line1": "1 31191U 99025BJV 25358.65987689  .00000944  00000+0  29470-3 0  9992",
        "tle_line2": "2 31191  98.7828 259.8709 0092853 158.9099 201.5957 14.40815739981848"
      },
      "geometry": {
        "type": "Point",
        "coordinates": [
          156.74097103783757,
          80.96040357839047
        ]
      }
    }
  ]
}